NORAD_CAT_ID,OBJECT_NAME,OBJECT_TYPE,EPOCH,MEAN_MOTION,ECCENTRICITY,INCLINATION,RA_OF_ASC_NODE,ARG_OF_PERICENTER,MEAN_ANOMALY,BSTAR,MEAN_MOTION_DOT,MEAN_MOTION_DDOT,TLE_LINE0,TLE_LINE1,TLE_LINE2,SEMIMAJOR_AXIS,PERIOD,APOGEE,PERIGEE,DECAYED
55669.0,STARLINK-5459,PAYLOAD,2024-03-22 14:47:44,14.98337634,0.0002476,70.0019,172.4647,266.653,93.4346,0.00057997,6.835e-05,0.0,0 STARLINK-5459,1 55669U 23021AT  24082.61648333  .00006835  00000-0  57997-3 0  9991,2 55669  70.0019 172.4647 0002476 266.6530  93.4346 14.98337634 61877,6950.169,96.107,573.755,570.313,0.0
55669.0,STARLINK-5459,PAYLOAD,2024-03-22 16:23:52,14.98340115,0.0002567,70.002,172.2975,271.0622,89.0243,0.00060182,7.097e-05,0.0,0 STARLINK-5459,1 55669U 23021AT  24082.68324089  .00007097  00000-0  60182-3 0  9998,2 55669  70.0020 172.2975 0002567 271.0622  89.0243 14.98340115 61587,6950.162,96.106,573.811,570.243,0.0
55669.0,STARLINK-5459,PAYLOAD,2024-03-23 05:12:58,14.98329921,0.0003506,70.0,170.9499,271.9329,88.1428,-0.00026674,-3.274e-05,0.0,0 STARLINK-5459,1 55669U 23021AT  24083.21734863 -.00003274  00000-0 -26674-3 0  9996,2 55669  70.0000 170.9499 0003506 271.9329  88.1428 14.98329921 61664,6950.193,96.107,574.495,569.621,0.0
55669.0,STARLINK-5459,PAYLOAD,2024-03-23 14:49:46,14.98334371,0.000317,69.9994,169.9386,275.5526,84.5271,-0.00024428,-3.007e-05,0.0,0 STARLINK-5459,1 55669U 23021AT  24083.61790397 -.00003007  00000-0 -24428-3 0  9993,2 55669  69.9994 169.9386 0003170 275.5526  84.5271 14.98334371 61720,6950.179,96.107,574.248,569.841,0.0
55669.0,STARLINK-5459,PAYLOAD,2024-03-24 05:14:58,14.98346345,0.0003316,69.9995,168.423,273.511,86.567,-0.00014169,-1.784e-05,0.0,0 STARLINK-5459,1 55669U 23021AT  24084.21872803 -.00001784  00000-0 -14169-3 0  9994,2 55669  69.9995 168.4230 0003316 273.5110  86.5670 14.98346345 61811,6950.142,96.106,574.312,569.703,0.0
55669.0,STARLINK-5459,PAYLOAD,2024-03-24 13:15:36,14.98364099,0.0002808,70.0005,167.5832,272.4617,87.622,5.0988e-05,5.16e-06,0.0,0 STARLINK-5459,1 55669U 23021AT  24084.55250902  .00000516  00000-0  50988-4 0  9991,2 55669  70.0005 167.5832 0002808 272.4617  87.6220 14.98364099 61863,6950.087,96.105,573.904,570.001,0.0
55669.0,STARLINK-5459,PAYLOAD,2024-03-24 14:51:44,14.98364617,0.0002629,70.001,167.4151,266.298,93.7879,0.00010936,1.213e-05,0.0,0 STARLINK-5459,1 55669U 23021AT  24084.61926586  .00001213  00000-0  10936-3 0  9999,2 55669  70.0010 167.4151 0002629 266.2980  93.7879 14.98364617 62176,6950.086,96.105,573.778,570.124,0.0
55669.0,STARLINK-5459,PAYLOAD,2024-03-25 05:17:00,14.98304188,0.0002818,70.0008,165.9002,271.8589,88.2248,-2.9706e-05,-4.47e-06,0.0,0 STARLINK-5459,1 55669U 23021AT  24085.22014382 -.00000447  00000-0 -29706-4 0  9995,2 55669  70.0008 165.9002 0002818 271.8589  88.2248 14.98304188 61960,6950.273,96.109,574.096,570.179,0.0
55669.0,STARLINK-5459,PAYLOAD,2024-03-25 13:17:40,14.98316789,0.0002774,70.0004,165.0583,271.9942,88.0899,9.7053e-05,1.065e-05,0.0,0 STARLINK-5459,1 55669U 23021AT  24085.55393767  .00001065  00000-0  97053-4 0  9993,2 55669  70.0004 165.0583 0002774 271.9942  88.0899 14.98316789 62013,6950.234,96.108,574.027,570.171,0.0
55669.0,STARLINK-5459,PAYLOAD,2024-03-25 14:53:48,14.98317787,0.0002693,70.0007,164.8904,271.4612,88.6238,0.00011313,1.257e-05,0.0,0 STARLINK-5459,1 55669U 23021AT  24085.62069739  .00001257  00000-0  11313-3 0  9997,2 55669  70.0007 164.8904 0002693 271.4612  88.6238 14.98317787 62325,6950.231,96.108,573.967,570.224,0.0
55669.0,STARLINK-5459,PAYLOAD,2024-03-26 13:19:42,14.98320163,0.0002795,70.0008,162.5352,270.6512,89.4327,-0.00027396,-3.359e-05,0.0,0 STARLINK-5459,1 55669U 23021AT  24086.55535069 -.00003359  00000-0 -27396-3 0  9999,2 55669  70.0008 162.5352 0002795 270.6512  89.4327 14.98320163 62163,6950.223,96.108,574.031,570.146,0.0
55669.0,STARLINK-5459,PAYLOAD,2024-03-26 14:55:50,14.98319806,0.0002746,70.0009,162.3669,270.7042,89.3802,-0.00027233,-3.34e-05,0.0,0 STARLINK-5459,1 55669U 23021AT  24086.62211143 -.00003340  00000-0 -27233-3 0  9991,2 55669  70.0009 162.3669 0002746 270.7042  89.3802 14.98319806 62471,6950.224,96.108,573.998,570.181,0.0
55669.0,STARLINK-5459,PAYLOAD,2024-03-27 05:21:02,14.98315969,0.0003189,69.9995,160.8503,278.5022,81.5775,0.00027134,3.145e-05,0.0,0 STARLINK-5459,1 55669U 23021AT  24087.22294423  .00003145  00000-0  27134-3 0  9991,2 55669  69.9995 160.8503 0003189 278.5022  81.5775 14.98315969 62264,6950.236,96.108,574.318,569.885,0.0
55669.0,STARLINK-5459,PAYLOAD,2024-03-27 13:21:42,14.98329988,0.0003077,69.9998,160.0088,279.0284,81.0526,0.00031196,3.631e-05,0.0,0 STARLINK-5459,1 55669U 23021AT  24087.55673857  .00003631  00000-0  31196-3 0  9992,2 55669  69.9998 160.0088 0003077 279.0284  81.0526 14.98329988 62310,6950.193,96.107,574.197,569.919,0.0
55669.0,STARLINK-5459,PAYLOAD,2024-03-27 14:57:50,14.98332482,0.0003111,69.9997,159.8406,278.4465,81.6341,0.00035292,4.121e-05,0.0,0 STARLINK-5459,1 55669U 23021AT  24087.62349726  .00004121  00000-0  35292-3 0  9991,2 55669  69.9997 159.8406 0003111 278.4465  81.6341 14.98332482 62620,6950.185,96.107,574.212,569.888,0.0
55669.0,STARLINK-5459,PAYLOAD,2024-03-28 11:47:34,14.98356923,0.0003159,70.001,157.6527,278.1207,81.9593,0.00074711,8.839e-05,0.0,0 STARLINK-5459,1 55669U 23021AT  24088.49137473  .00008839  00000-0  74711-3 0  9990,2 55669  70.0010 157.6527 0003159 278.1207  81.9593 14.98356923 62754,6950.11,96.105,574.17,569.779,0.0
55669.0,STARLINK-5459,PAYLOAD,2024-03-28 21:24:22,14.98357284,0.000309,70.0011,156.6428,278.8883,81.1926,0.00037041,4.333e-05,0.0,0 STARLINK-5459,1 55669U 23021AT  24088.89192814  .00004333  00000-0  37041-3 0  9994,2 55669  70.0011 156.6428 0003090 278.8883  81.1926 14.98357284 62815,6950.109,96.105,574.121,569.826,0.0
55669.0,STARLINK-5459,PAYLOAD,2024-03-29 05:25:02,14.98350752,0.0002468,70.0025,155.8021,277.127,82.9608,0.00012182,1.362e-05,0.0,0 STARLINK-5459,1 55669U 23021AT  24089.22572785  .00001362  00000-0  12182-3 0  9999,2 55669  70.0025 155.8021 0002468 277.1270  82.9608 14.98350752 62561,6950.129,96.106,573.709,570.278,0.0
55669.0,STARLINK-5459,PAYLOAD,2024-03-29 11:49:35,14.98341004,0.0002711,70.0017,155.1291,274.2395,85.8454,-3.3303e-05,-4.9e-06,0.0,0 STARLINK-5459,1 55669U 23021AT  24089.49277031 -.00000490  00000-0 -33303-4 0  9996,2 55669  70.0017 155.1291 0002711 274.2395  85.8454 14.98341004 62607,6950.159,96.106,573.908,570.14,0.0
55669.0,STARLINK-5459,PAYLOAD,2024-03-30 05:27:08,14.98285895,0.0004053,69.9998,153.2767,291.4782,68.5945,-0.00063148,-7.612e-05,0.0,0 STARLINK-5459,1 55669U 23021AT  24090.22717932 -.00007612  00000-0 -63148-3 0  9990,2 55669  69.9998 153.2767 0004053 291.4782  68.5945 14.98285895 62711,6950.329,96.11,575.011,569.377,0.0
55669.0,STARLINK-5459,PAYLOAD,2024-03-30 13:27:45,14.98333334,0.0003105,69.9995,152.4345,273.4586,86.6217,-7.8338e-05,-1.028e-05,0.0,0 STARLINK-5459,1 55669U 23021AT  24090.56094401 -.00001028  00000-0 -78338-4 0  9999,2 55669  69.9995 152.4345 0003105 273.4586  86.6217 14.98333334 62760,6950.183,96.107,574.206,569.89,0.0
55669.0,STARLINK-5459,PAYLOAD,2024-03-30 21:28:25,14.98336837,0.0002828,69.9996,151.592,274.5503,85.5333,1.4432e-05,7.9e-07,0.0,0 STARLINK-5459,1 55669U 23021AT  24090.89474168  .00000079  00000-0  14432-4 0  9995,2 55669  69.9996 151.5920 0002828 274.5503  85.5333 14.98336837 63110,6950.172,96.107,574.002,570.071,0.0
55669.0,STARLINK-5459,PAYLOAD,2024-03-31 13:29:45,14.98343104,0.0003073,69.9994,149.9102,272.4013,87.6794,0.00026794,3.107e-05,0.0,0 STARLINK-5459,1 55669U 23021AT  24091.56233239  .00003107  00000-0  26794-3 0  9990,2 55669  69.9994 149.9102 0003073 272.4013  87.6794 14.98343104 62913,6950.152,96.106,574.153,569.882,0.0
55669.0,STARLINK-5459,PAYLOAD,2024-03-31 21:30:26,14.98335495,0.000296,70.0004,149.0685,273.7961,86.2859,0.00048447,5.693e-05,0.0,0 STARLINK-5459,1 55669U 23021AT  24091.89614349  .00005693  00000-0  48447-3 0  9992,2 55669  70.0004 149.0685 0002960 273.7961  86.2859 14.98335495 63265,6950.176,96.107,574.098,569.984,0.0
55669.0,STARLINK-5459,PAYLOAD,2024-04-01 11:55:39,14.98332962,0.0002967,70.0004,147.5535,272.6853,87.3966,0.0009234,0.00010943,0.0,0 STARLINK-5459,1 55669U 23021AT  24092.49698556  .00010943  00000-0  92340-3 0  9996,2 55669  70.0004 147.5535 0002967 272.6853  87.3966 14.98332962 63051,6950.184,96.107,574.111,569.987,0.0
55669.0,STARLINK-5459,PAYLOAD,2024-04-02 03:56:58,14.983469,0.0002958,70.0011,145.87,270.9188,89.1632,5.4568e-05,5.58e-06,0.0,0 STARLINK-5459,1 55669U 23021AT  24093.16457032  .00000558  00000-0  54568-4 0  9995,2 55669  70.0011 145.8700 0002958 270.9188  89.1632 14.98346900 63154,6950.141,96.106,574.061,569.95,0.0
55669.0,STARLINK-5459,PAYLOAD,2024-04-02 13:33:46,14.98348647,0.0002919,69.9996,144.8599,269.8818,90.2006,6.9646e-05,7.38e-06,0.0,0 STARLINK-5459,1 55669U 23021AT  24093.56512630  .00000738  00000-0  69646-4 0  9998,2 55669  69.9996 144.8599 0002919 269.8818  90.2006 14.98348647 63510,6950.135,96.106,574.029,569.971,0.0
55669.0,STARLINK-5459,PAYLOAD,2024-04-02 19:58:19,14.98342144,0.0002885,69.9996,144.1866,270.1449,89.9379,3.9128e-06,-4.6e-07,0.0,0 STARLINK-5459,1 55669U 23021AT  24093.83216903 -.00000046  00000-0  39128-5 0  9998,2 55669  69.9996 144.1866 0002885 270.1449  89.9379 14.98342144 63252,6950.155,96.106,574.025,570.015,0.0
55669.0,STARLINK-5459,PAYLOAD,2024-04-03 13:35:48,14.98337505,0.0002905,69.9993,142.3352,270.1858,89.8968,-6.3519e-05,-8.51e-06,0.0,0 STARLINK-5459,1 55669U 23021AT  24094.56652811 -.00000851  00000-0 -63519-4 0  9996,2 55669  69.9993 142.3352 0002905 270.1858  89.8968 14.98337505 63669,6950.17,96.107,574.054,570.016,0.0
55669.0,STARLINK-5459,PAYLOAD,2024-04-03 20:00:20,14.98334312,0.0002837,69.9994,141.6618,270.836,89.2473,-5.7258e-05,-7.76e-06,0.0,0 STARLINK-5459,1 55669U 23021AT  24094.83356905 -.00000776  00000-0 -57258-4 0  9990,2 55669  69.9994 141.6618 0002837 270.8360  89.2473 14.98334312 63406,6950.18,96.107,574.016,570.073,0.0
